OBJECT_NAME,OBJECT_ID,EPOCH,MEAN_MOTION,ECCENTRICITY,INCLINATION,RA_OF_ASC_NODE,ARG_OF_PERICENTER,MEAN_ANOMALY,EPHEMERIS_TYPE,CLASSIFICATION_TYPE,NORAD_CAT_ID,ELEMENT_SET_NO,REV_AT_EPOCH,BSTAR,MEAN_MOTION_DOT,MEAN_MOTION_DDOT
STARLINK-31688,2024-062N,2026-06-10T06:42:58.601088,15.34391174,.0001133,53.1593,187.2825,82.6024,277.5107,0,U,59386,999,12378,.34331E-4,.784E-5,0
STARLINK-31714,2024-062P,2026-06-10T06:54:17.546976,15.34391114,.0001041,53.1594,185.1976,86.8267,273.2854,0,U,59387,999,12380,.1798E-4,.231E-5,0
STARLINK-31643,2024-062Q,2026-06-10T08:31:07.072608,15.34392306,.0001114,53.1616,184.9067,94.2540,265.8589,0,U,59388,999,12386,.18347E-4,.244E-5,0
STARLINK-31647,2024-062R,2026-06-10T08:03:39.968064,15.33549984,.0001097,53.1608,185.5304,73.5092,286.6031,0,U,59389,999,12385,.38171E-4,.883E-5,0
STARLINK-31649,2024-062S,2026-06-10T07:18:34.047072,15.34361512,.0001129,53.1597,185.3021,56.3240,303.7870,0,U,59390,999,12385,-.99322E-4,-.3726E-4,0
STARLINK-31644,2024-062T,2026-06-10T07:31:28.102080,15.34366272,.0000202,53.1602,187.4898,172.3368,187.7637,0,U,59391,999,12382,.12489E-3,.3842E-4,0
STARLINK-31626,2024-062U,2026-06-10T07:24:25.890336,15.30189528,.0001089,53.1589,185.3239,96.5231,263.5894,0,U,59392,999,12385,.10419E-3,.2727E-4,0
STARLINK-31443,2024-062V,2026-06-10T07:02:32.353728,15.34390319,.0001343,53.1604,171.5599,88.8289,271.2868,0,U,59393,999,12404,.32815E-4,.732E-5,0
STARLINK-31607,2024-062W,2026-06-10T12:00:02.000160,15.33355888,.0001332,53.1588,184.4984,89.9765,214.0592,0,U,59394,999,580,.43768E-2,.145503E-2,0
YAOGAN-42 01,2024-063A,2026-06-10T05:04:43.802976,15.23010933,.00044896,34.9970,169.6979,255.5185,104.5032,0,U,59395,999,12178,.2734192E-3,.6559E-4,0
STARLINK-31608,2024-062X,2026-06-10T12:00:02.000160,15.33190846,.0002005,53.1600,184.7977,98.7735,53.6034,0,U,59397,999,590,.43031E-1,.1532797E-1,0
STARLINK-31534,2024-064A,2026-06-09T23:21:12.593952,15.27574736,.00004692,42.9787,254.6404,53.0329,307.0565,0,U,59398,999,12328,.23337965E-4,.381E-5,0
STARLINK-31544,2024-064B,2026-06-09T23:01:05.090880,15.27585408,.00016029,43.0120,255.3913,286.1135,73.9541,0,U,59399,999,12333,-.21132869E-3,-.6074E-4,0
STARLINK-31545,2024-064C,2026-06-09T23:37:48.415296,15.27616255,.00013152,42.9949,254.7189,104.3500,255.7497,0,U,59400,999,12334,-.31584356E-3,-.8953E-4,0
STARLINK-31507,2024-064D,2026-06-10T12:20:21.091200,15.27577708,.000152,42.9990,251.8105,249.7223,110.3465,0,U,59401,999,12336,-.41403E-5,-.376E-5,0
STARLINK-31543,2024-064E,2026-06-09T22:49:56.556192,15.27585842,.0002136,42.9962,255.3282,282.5658,77.4955,0,U,59402,999,12333,.66536875E-4,.1569E-4,0
STARLINK-31366,2024-064F,2026-06-10T12:37:00.656256,15.27578912,.0003679,43.0099,251.9082,279.4882,80.5553,0,U,59403,999,12342,.51508E-4,.1154E-4,0
STARLINK-31374,2024-064G,2026-06-09T20:25:46.433568,15.27580074,.00015702,43.0025,204.6364,278.5550,81.5123,0,U,59404,999,12365,.30515078E-4,.578E-5,0
STARLINK-31400,2024-064H,2026-06-09T23:26:45.550176,15.27578967,.00009263,42.9855,254.6657,83.4841,276.6115,0,U,59405,999,12334,.15491006E-4,.165E-5,0
STARLINK-31391,2024-064J,2026-06-09T23:32:16.000800,15.27583292,.00057958,43.0306,254.6918,271.7472,88.2716,0,U,59406,999,12334,.34960188E-4,.698E-5,0
STARLINK-31387,2024-064K,2026-06-09T22:55:30.370368,15.27575909,.00015736,42.9961,255.3573,298.3972,61.6720,0,U,59407,999,12333,.63502119E-4,.1485E-4,0
STARLINK-31396,2024-064M,2026-06-10T12:22:26.740128,15.27580425,.0001349,42.9993,241.4335,271.4605,88.6092,0,U,59409,999,12348,.56017E-4,.128E-4,0
STARLINK-31412,2024-064N,2026-06-10T12:31:27.180768,15.27577799,.0002082,42.9935,251.8664,266.9033,93.1581,0,U,59410,999,12342,-.76916E-7,-.264E-5,0
STARLINK-31483,2024-064P,2026-06-10T12:48:06.414912,15.27588978,.0002496,43.0031,251.9593,273.2338,86.8228,0,U,59411,999,12342,.87925E-4,.2158E-4,0
STARLINK-31568,2024-064Q,2026-06-10T06:35:11.443200,15.27583088,.0000541,42.9990,253.4584,248.3493,111.7301,0,U,59412,999,12338,-.64515E-5,-.439E-5,0
STARLINK-31615,2024-064R,2026-06-10T12:42:05.451264,15.27577726,.000125,43.0010,244.9866,276.9528,83.1181,0,U,59413,999,12350,.16905E-4,.203E-5,0
STARLINK-31457,2024-064S,2026-06-10T12:45:47.248704,15.27585410,.00009,43.0019,244.9977,274.8964,85.1785,0,U,59414,999,12350,.54505E-4,.1238E-4,0
STARLINK-31398,2024-064T,2026-06-09T12:53:32.682912,15.27587861,.00010084,43.0002,257.3795,179.9316,180.1536,0,U,59415,999,12327,.49663163E-4,.1105E-4,0
STARLINK-31399,2024-064U,2026-06-09T23:43:23.736288,15.27580172,.0001375,42.9967,254.7423,255.1316,104.9383,0,U,59416,999,12334,-.8594684E-5,-.499E-5,0
STARLINK-31401,2024-064V,2026-06-10T12:36:33.422976,15.27582994,.0000562,43.0100,244.9748,251.5294,108.5497,0,U,59417,999,12325,.11046E-3,.2779E-4,0
