STARLINK-31688          
1 59386U 24062N   26161.27984492  .00000784  00000+0  34331-4 0  9992
2 59386  53.1593 187.2825 0001133  82.6024 277.5107 15.34391174123780
STARLINK-31714          
1 59387U 24062P   26161.28770309  .00000231  00000+0  17980-4 0  9992
2 59387  53.1594 185.1976 0001041  86.8267 273.2854 15.34391114123808
STARLINK-31643          
1 59388U 24062Q   26161.35494297  .00000244  00000+0  18347-4 0  9992
2 59388  53.1616 184.9067 0001114  94.2540 265.8589 15.34392306123862
STARLINK-31647          
1 59389U 24062R   26161.33587926  .00000883  00000+0  38171-4 0  9999
2 59389  53.1608 185.5304 0001097  73.5092 286.6031 15.33549984123854
STARLINK-31649          
1 59390U 24062S   26161.30456073 -.00003726  00000+0 -99322-4 0  9992
2 59390  53.1597 185.3021 0001129  56.3240 303.7870 15.34361512123859
STARLINK-31644          
1 59391U 24062T   26161.31351970  .00003842  00000+0  12489-3 0  9999
2 59391  53.1602 187.4898 0000202 172.3368 187.7637 15.34366272123829
STARLINK-31626          
1 59392U 24062U   26161.30863299  .00002727  00000+0  10419-3 0  9993
2 59392  53.1589 185.3239 0001089  96.5231 263.5894 15.30189528123854
STARLINK-31443          
1 59393U 24062V   26161.29343002  .00000732  00000+0  32815-4 0  9996
2 59393  53.1604 171.5599 0001343  88.8289 271.2868 15.34390319124044
STARLINK-31607          
1 59394U 24062W   26161.50002315  .00145503  00000+0  43768-2 0  9993
2 59394  53.1588 184.4984 0001332  89.9765 214.0592 15.33355888  5808
YAOGAN-42 01            
1 59395U 24063A   26161.21161809  .00006559  00000+0  27342-3 0  9995
2 59395  34.9970 169.6979 0004489 255.5185 104.5032 15.23010933121789
STARLINK-31608          
1 59397U 24062X   26161.50002315  .01532797  00000+0  43031-1 0  9994
2 59397  53.1600 184.7977 0002005  98.7735  53.6034 15.33190846  5904
STARLINK-31534          
1 59398U 24064A   26160.97306243  .00000381  00000+0  23338-4 0  9993
2 59398  42.9787 254.6404 0000469  53.0329 307.0565 15.27574736123288
STARLINK-31544          
1 59399U 24064B   26160.95908670 -.00006074  00000+0 -21133-3 0  9991
2 59399  43.0120 255.3913 0001602 286.1135  73.9541 15.27585408123336
STARLINK-31545          
1 59400U 24064C   26160.98458814 -.00008953  00000+0 -31584-3 0  9996
2 59400  42.9949 254.7189 0001315 104.3500 255.7497 15.27616255123348
STARLINK-31507          
1 59401U 24064D   26161.51413300 -.00000376  00000+0 -41403-5 0  9992
2 59401  42.9990 251.8105 0001520 249.7223 110.3465 15.27577708123367
STARLINK-31543          
1 59402U 24064E   26160.95134903  .00001569  00000+0  66537-4 0  9996
2 59402  42.9962 255.3282 0002136 282.5658  77.4955 15.27585842123335
STARLINK-31366          
1 59403U 24064F   26161.52570204  .00001154  00000+0  51508-4 0  9991
2 59403  43.0099 251.9082 0003679 279.4882  80.5553 15.27578912123425
STARLINK-31374          
1 59404U 24064G   26160.85123187  .00000578  00000+0  30515-4 0  9995
2 59404  43.0025 204.6364 0001570 278.5550  81.5123 15.27580074123654
STARLINK-31400          
1 59405U 24064H   26160.97691609  .00000165  00000+0  15491-4 0  9996
2 59405  42.9855 254.6657 0000926  83.4841 276.6115 15.27578967123346
STARLINK-31391          
1 59406U 24064J   26160.98074075  .00000698  00000+0  34960-4 0  9993
2 59406  43.0306 254.6918 0005795 271.7472  88.2716 15.27583292123342
STARLINK-31387          
1 59407U 24064K   26160.95521262  .00001485  00000+0  63502-4 0  9995
2 59407  42.9961 255.3573 0001573 298.3972  61.6720 15.27575909123338
STARLINK-31396          
1 59409U 24064M   26161.51558727  .00001280  00000+0  56017-4 0  9992
2 59409  42.9993 241.4335 0001349 271.4605  88.6092 15.27580425123489
STARLINK-31412          
1 59410U 24064N   26161.52184237 -.00000264  00000+0 -76916-7 0  9992
2 59410  42.9935 251.8664 0002082 266.9033  93.1581 15.27577799123424
STARLINK-31483          
1 59411U 24064P   26161.53340758  .00002158  00000+0  87925-4 0  9997
2 59411  43.0031 251.9593 0002496 273.2338  86.8228 15.27588978123422
STARLINK-31568          
1 59412U 24064Q   26161.27443800 -.00000439  00000+0 -64515-5 0  9994
2 59412  42.9990 253.4584 0000541 248.3493 111.7301 15.27583088123388
STARLINK-31615          
1 59413U 24064R   26161.52922976  .00000203  00000+0  16905-4 0  9995
2 59413  43.0010 244.9866 0001250 276.9528  83.1181 15.27577726123500
STARLINK-31457          
1 59414U 24064S   26161.53179686  .00001238  00000+0  54505-4 0  9996
2 59414  43.0019 244.9977 0000900 274.8964  85.1785 15.27585410123506
STARLINK-31398          
1 59415U 24064T   26160.53718383  .00001105  00000+0  49663-4 0  9991
2 59415  43.0002 257.3795 0001008 179.9316 180.1536 15.27587861123277
STARLINK-31399          
1 59416U 24064U   26160.98846917 -.00000499  00000+0 -85947-5 0  9999
2 59416  42.9967 254.7423 0001375 255.1316 104.9383 15.27580172123349
STARLINK-31401          
1 59417U 24064V   26161.52538684  .00002779  00000+0  11046-3 0  9998
2 59417  43.0100 244.9748 0000562 251.5294 108.5497 15.27582994123254
